BEIDOU-2 IGSO-1 (C06)   
1 36828U 10036A   24336.46670449 -.00000022  00000+0  00000+0 0  9998
2 36828  54.2585 168.0493 0042808 205.5650 332.2750  1.00282575 52586
BEIDOU-2 G4 (C04)       
1 37210U 10057A   24336.84701942 -.00000085  00000+0  00000+0 0  9991
2 37210   2.2519  70.1490 0009336 181.5420 284.4501  1.00272547 51656
BEIDOU-2 IGSO-2 (C07)   
1 37256U 10068A   24334.73967046 -.00000205  00000+0  00000+0 0  9992
2 37256  48.5771 278.7994 0037686 218.6719 302.5714  1.00250110 51139
BEIDOU-2 IGSO-3 (C08)   
1 37384U 11013A   24336.68080645 -.00000185  00000+0  00000+0 0  9999
2 37384  61.5974  45.5034 0031685 181.7828 196.1059  1.00266956 50021
BEIDOU-2 IGSO-4 (C09)   
1 37763U 11038A   24335.91182243  .00000083  00000+0  00000+0 0  9995
2 37763  54.5636 170.7039 0129853 228.4514  95.7338  1.00273189 48994
BEIDOU-2 IGSO-5 (C10)   
1 37948U 11073A   24336.74466316 -.00000161  00000+0  00000+0 0  9995
2 37948  48.7087 278.4720 0100637 222.2658 291.6458  1.00255099 47491
BEIDOU-2 G5 (C05)       
1 38091U 12008A   24336.91494122  .00000084  00000+0  00000+0 0  9992
2 38091   2.1725  70.9539 0011311 224.6929 163.7040  1.00270548 46732
BEIDOU-2 M3 (C11)       
1 38250U 12018A   24336.46175876 -.00000061  00000+0  00000+0 0  9998
2 38250  56.2208 323.7651 0025400 267.7428  91.9682  1.86233648 85466
BEIDOU-2 M4 (C12)       
1 38251U 12018B   24336.39229619 -.00000061  00000+0  00000+0 0  9996
2 38251  56.1260 323.0262 0016311 270.4096  89.4047  1.86232098 85812
BEIDOU-2 M6 (C14)       
1 38775U 12050B   24336.63893357 -.00000024  00000+0  00000+0 0  9995
2 38775  56.0524  81.5738 0010799 340.1073  19.8377  1.86230975 82837
BEIDOU-2 G6 (C02)       
1 38953U 12059A   24336.84285793 -.00000150  00000+0  00000+0 0  9994
2 38953   2.9872  79.1306 0007433 291.0260  88.5203  1.00272481 44279
BEIDOU-3S IGSO-1S (C31) 
1 40549U 15019A   24336.84526388 -.00000183  00000+0  00000+0 0  9991
2 40549  50.2637 302.2047 0034952 198.9368 330.8121  1.00267302 35436
BEIDOU-3S M2S (C58)     
1 40748U 15037A   24336.59295920 -.00000061  00000+0  00000+0 0  9994
2 40748  55.3529 321.3351 0012994 261.4789  98.3728  1.86229150 63644
BEIDOU-3S M1S (C57)     
1 40749U 15037B   24336.32930879 -.00000062  00000+0  00000+0 0  9996
2 40749  55.3558 321.3307 0004368 322.9274  37.0419  1.86227601 63642
BEIDOU-3S IGSO-2S (C56) 
1 40938U 15053A   24336.74403233 -.00000135  00000+0  00000+0 0  9990
2 40938  50.0989 265.4466 0051532 189.3422 340.5339  1.00267865 33711
BEIDOU-2 IGSO-6 (C13)   
1 41434U 16021A   24336.67736351 -.00000165  00000+0  00000+0 0  9993
2 41434  59.4252  43.6679 0055341 225.5570 142.3236  1.00282556 31840
BEIDOU-2 G7 (C03)       
1 41586U 16037A   24336.85138352 -.00000327  00000+0  00000+0 0  9995
2 41586   1.7806  67.2442 0007489 345.3309  75.6683  1.00275058  1259
BEIDOU-3 M1 (C19)       
1 43001U 17069A   24336.40477840 -.00000025  00000+0  00000+0 0  9999
2 43001  56.2017  81.7003 0008499 296.4400  63.4590  1.86231287 48125
BEIDOU-3 M2 (C20)       
1 43002U 17069B   24335.80542531 -.00000029  00000+0  00000+0 0  9997
2 43002  56.2006  81.7557 0005874 326.1799  33.7664  1.86230944 48103
BEIDOU-3 M7 (C27)       
1 43107U 18003A   24336.08996760 -.00000064  00000+0  00000+0 0  9999
2 43107  54.8118 321.8698 0002437  59.0185 301.0060  1.86232468 46870
BEIDOU-3 M8 (C28)       
1 43108U 18003B   24335.49483433 -.00000067  00000+0  00000+0 0  9995
2 43108  54.8052 321.8750 0005163 267.7461  92.1961  1.86230967 46860
BEIDOU-3 M4 (C22)       
1 43207U 18018A   24335.93594985 -.00000028  00000+0  00000+0 0  9992
2 43207  56.1601  81.7992 0003608   9.1337 350.8570  1.86231211 46253
BEIDOU-3 M3 (C21)       
1 43208U 18018B   24336.00255488 -.00000028  00000+0  00000+0 0  9994
2 43208  56.1596  81.8012 0005951 309.4963  50.4355  1.86231339 46250
BEIDOU-3 M9 (C29)       
1 43245U 18029A   24336.22230786 -.00000063  00000+0  00000+0 0  9994
2 43245  54.6901 319.5571 0002210 273.1694  86.8029  1.86232740 45413
BEIDOU-3 M10 (C30)      
1 43246U 18029B   24334.54091378 -.00000071  00000+0  00000+0 0  9999
2 43246  54.6885 319.6425 0003921 345.8903  14.0989  1.86232890 45362
BEIDOU-2 IGSO-7 (C16)   
1 43539U 18057A   24335.93990137 -.00000022  00000+0  00000+0 0  9996
2 43539  55.1518 167.9339 0078108 232.0388 121.0844  1.00261074 23487
BEIDOU-3 M5 (C23)       
1 43581U 18062A   24334.22967432  .00000090  00000+0  00000+0 0  9996
2 43581  54.1133 201.5173 0002222 336.8401  23.2545  1.86228935 43116
BEIDOU-3 M6 (C24)       
1 43582U 18062B   24336.24245355  .00000094  00000+0  00000+0 0  9998
2 43582  54.1129 201.4381 0007239  38.8164 321.3436  1.86229924 43154
BEIDOU-3 M12 (C26)      
1 43602U 18067A   24336.17637522  .00000095  00000+0  00000+0 0  9990
2 43602  54.2048 200.1367 0008588  34.2015 325.9615  1.86227770 42639
BEIDOU-3 M11 (C25)      
1 43603U 18067B   24336.30987257  .00000095  00000+0  00000+0 0  9999
2 43603  54.2022 200.0970 0005217  29.9130 330.2243  1.86227276 42666
BEIDOU-3 M13 (C32)      
1 43622U 18072A   24336.27054888 -.00000027  00000+0  00000+0 0  9993
2 43622  56.1323  81.3139 0005314 290.2309  69.6982  1.86231094 42170
BEIDOU-3 M14 (C33)      
1 43623U 18072B   24336.13601721 -.00000028  00000+0  00000+0 0  9994
2 43623  56.1340  81.3118 0002710 327.1485  32.8203  1.86231042 42169
BEIDOU-3 M16 (C35)      
1 43647U 18078A   24336.29765676 -.00000063  00000+0  00000+0 0  9992
2 43647  54.5863 319.6390 0006893   7.7210 352.2871  1.86232335 41681
BEIDOU-3 M15 (C34)      
1 43648U 18078B   24336.42679671 -.00000062  00000+0  00000+0 0  9996
2 43648  54.5819 319.6367 0003632   4.0268 355.9736  1.86232212 41693
BEIDOU-3 G1 (C59)       
1 43683U 18085A   24336.82965826 -.00000252  00000+0  00000+0 0  9998
2 43683   2.6060 103.6738 0001334  46.2288 359.9276  1.00267358 22422
BEIDOU-3 M17 (C36)      
1 43706U 18093A   24336.04269964  .00000094  00000+0  00000+0 0  9990
2 43706  54.1964 201.4062 0006719 299.5242  60.5169  1.86228524 41035
BEIDOU-3 M18 (C37)      
1 43707U 18093B   24336.44362420  .00000094  00000+0  00000+0 0  9996
2 43707  54.1972 201.3843 0006469 339.7535  20.3288  1.86230050 41050
BEIDOU-3 IGSO-1 (C38)   
1 44204U 19023A   24335.79927625 -.00000219  00000+0  00000+0 0  9994
2 44204  57.8872  43.4880 0025253 212.3505 218.0758  1.00252114  1564
BEIDOU-2 G8 (C01)       
1 44231U 19027A   24336.82965826 -.00000220  00000+0  00000+0 0  9990
2 44231   1.8932  74.7311 0004375 195.9074 243.7191  1.00275854 20445
BEIDOU-3 IGSO-2 (C39)   
1 44337U 19035A   24322.83050358 -.00000064  00000+0  00000+0 0  9993
2 44337  55.1861 163.9216 0034767 201.0257 107.1426  1.00249229 19887
BEIDOU-3 M24 (C46)      
1 44542U 19061A   24335.43977221  .00000094  00000+0  00000+0 0  9999
2 44542  54.4242 201.7457 0009079  14.6315 345.5026  1.86229462 35297
BEIDOU-3 M23 (C45)      
1 44543U 19061B   24336.41638362  .00000094  00000+0  00000+0 0  9999
2 44543  54.4226 201.6816 0005754  12.1083 195.3971  1.86229702 35319
BEIDOU-3 IGSO-3 (C40)   
1 44709U 19073A   24336.27775884 -.00000199  00000+0  00000+0 0  9998
2 44709  55.7687 286.9523 0040151 190.3260 169.5401  1.00251199 18813
BEIDOU-3 M22 (C44)      
1 44793U 19078A   24336.35785773 -.00000063  00000+0  00000+0 0  9993
2 44793  54.4336 319.5485 0005586  11.2518 348.7581  1.86232076 34166
BEIDOU-3 M21 (C43)      
1 44794U 19078B   24336.48721092 -.00000062  00000+0  00000+0 0  9991
2 44794  54.4070 319.5164 0003774 355.6790   4.3151  1.86232602 34174
BEIDOU-3 M19 (C41)      
1 44864U 19090A   24336.74686145 -.00000023  00000+0  00000+0 0  9998
2 44864  56.0667  81.4606 0017072 278.4510  87.6603  1.86231547 33763
BEIDOU-3 M20 (C42)      
1 44865U 19090B   24336.68919933 -.00000023  00000+0  00000+0 0  9996
2 44865  56.0683  81.4961 0014359 291.4868 125.6587  1.86231515 33749
BEIDOU-3 G2 (C60)       
1 45344U 20017A   24336.88591333 -.00000116  00000+0  00000+0 0  9995
2 45344   2.5482  35.3994 0004101 219.3691 215.4280  1.00272873 17621
BEIDOU-3 G3 (C61)       
1 45807U 20040A   24336.85138366 -.00000327  00000+0  00000+0 0  9999
2 45807   1.1084  56.8108 0003555 302.7834 128.6957  1.00270618 16430
BEIDOU-3 G4 (C62)       
1 56564U 23066A   24336.84701942 -.00000082  00000+0  00000+0 0  9995
2 56564   1.7082 289.0834 0004293 256.8084 350.2899  1.00271338  5759
BEIDOU-3 M28 (C50)      
1 58654U 23207A   24336.03327595 -.00000029  00000+0  00000+0 0  9994
2 58654  55.2518  81.3836 0002101 245.1116 114.8514  1.86232035  6357
BEIDOU-3 M26 (C48)      
1 58655U 23207B   24335.83261386 -.00000031  00000+0  00000+0 0  9990
2 58655  55.2537  81.3761 0003513 235.7540 124.1969  1.86231511  6334
